OSCAR 7 (AO-7)          
1 07530U 74089B   22253.16867167 -.00000041  00000+0  34264-4 0  9997
2 07530 101.9135 233.3305 0011829 239.3340 186.0272 12.53656843188322
PHASE 3B (AO-10)        
1 14129U 83058B   22252.77460778  .00000064  00000+0  00000+0 0  9998
2 14129  26.5212  82.4577 6021800 105.2123 325.5330  2.05868043267159
UOSAT 2 (UO-11)         
1 14781U 84021B   22252.48051417  .00000779  00000+0  10015-3 0  9991
2 14781  97.6250 236.1196 0009628  52.3052 307.9034 14.83784713 52506
LUSAT (LO-19)           
1 20442U 90005G   22252.86221826  .00000075  00000+0  44228-4 0  9999
2 20442  98.8028 219.0480 0010648 282.8019  77.1974 14.33082857705190
EYESAT A (AO-27)        
1 22825U 93061C   22253.09706269  .00000057  00000+0  39895-4 0  9990
2 22825  98.8819 285.9019 0008844 158.4503 201.7053 14.30189704510526
ITAMSAT (IO-26)         
1 22826U 93061D   22252.68010348  .00000070  00000+0  44701-4 0  9998
2 22826  98.8764 285.3505 0009586 147.1889 212.9889 14.30537788510458
RADIO ROSTO (RS-15)     
1 23439U 94085A   22252.91858081 -.00000039  00000+0  10000-3 0  9996
2 23439  64.8190   8.9950 0167789 258.1116 100.0950 11.27572059141015
JAS-2 (FO-29)           
1 24278U 96046B   22253.02450457  .00000021  00000+0  55037-4 0  9995
2 24278  98.5158 265.0755 0351225  63.9502 299.7353 13.53119715287296
TECHSAT 1B (GO-32)      
1 25397U 98043D   22252.83020876  .00000029  00000+0  32443-4 0  9997
2 25397  98.8244 203.5478 0000869 167.1704 192.9496 14.23769062255430
ISS (ZARYA)             
1 25544U 98067A   22253.32023148  .00007446  00000+0  13771-3 0  9999
2 25544  51.6430 274.8227 0002495 213.9255 331.8186 15.50126797358380
PCSAT (NO-44)           
1 26931U 01043C   22253.17772512  .00000053  00000+0  51957-4 0  9993
2 26931  67.0509 199.7051 0006278 257.4400 102.5999 14.30730289 93685
SAUDISAT 1C (SO-50)     
1 27607U 02058C   22252.86826100  .00000606  00000+0  10330-3 0  9992
2 27607  64.5552  43.5569 0081314 278.2752  80.9136 14.76226861 61044
CUTE-1 (CO-55)          
1 27844U 03031E   22252.97503682  .00000200  00000+0  10911-3 0  9991
2 27844  98.6810 259.3919 0009139 211.7355 148.3273 14.22489684995923
CUBESAT XI-IV (CO-57)   
1 27848U 03031J   22252.96447386  .00000162  00000+0  93104-4 0  9995
2 27848  98.6854 259.8830 0008815 227.3975 132.6459 14.22041774995727
MOZHAYETS 4 (RS-22)     
1 27939U 03042A   22253.08751133  .00000591  00000+0  11311-3 0  9995
2 27939  98.2033  33.8425 0011678 304.0757  55.9317 14.67450939 13452
CUBESAT XI-V            
1 28895U 05043F   22252.35718977  .00000851  00000+0  16966-3 0  9998
2 28895  98.1175  22.4978 0015585 234.5114 125.4635 14.64457548899696
FALCONSAT-3             
1 30776U 07006E   22252.81335526  .00055379  00000+0  67803-3 0  9997
2 30776  35.4297  65.3232 0001635  45.6422 314.4446 15.59255436862731
CUTE-1.7+APD II (CO-65) 
1 32785U 08021C   22252.72701779  .00001864  00000+0  19959-3 0  9993
2 32785  97.6660 220.9534 0011551 321.0104  39.0280 14.89828993779039
DELFI-C3 (DO-64)        
1 32789U 08021G   22252.65057269  .00012089  00000+0  64202-3 0  9999
2 32789  97.3358 275.9829 0010991  42.7234 317.4852 15.15406471784676
SEEDS II (CO-66)        
1 32791U 08021J   22252.83081446  .00002376  00000+0  23353-3 0  9996
2 32791  97.6194 226.4604 0010810 269.2936  90.7045 14.93026377779865
YUBILEINY (RS-30)       
1 32953U 08025A   22253.12685342  .00000024  00000+0  10000-3 0  9991
2 32953  82.5034 131.2947 0020223  74.5707 285.7604 12.43112976648851
KKS-1 (KISEKI)          
1 33499U 09002H   22253.18141245  .00000620  00000+0  97538-4 0  9992
2 33499  98.2044 136.5831 0010092  49.6866 310.5223 14.76111303733179
SWISSCUBE               
1 35932U 09051B   22252.57628378  .00000529  00000+0  12856-3 0  9996
2 35932  98.5585 110.8279 0008069 141.4242 218.7533 14.56948375688343
BEESAT-1                
1 35933U 09051C   22253.14882174  .00000461  00000+0  11341-3 0  9990
2 35933  98.5521 112.9858 0006116 149.1641 210.9916 14.56954852688581
ITUPSAT1                
1 35935U 09051E   22252.59975764  .00000424  00000+0  10730-3 0  9998
2 35935  98.5623 112.4558 0008286 157.1215 203.0352 14.56056634688122
XIWANG-1 (HOPE-1)       
1 36122U 09072B   22253.16700500 -.00000014  00000+0  75544-4 0  9999
2 36122 100.1921 221.4460 0007843 141.9730 218.1939 13.16371621612065
JUGNU                   
1 37839U 11058B   22252.75588722  .00000396  00000+0  68958-4 0  9999
2 37839  19.9623  24.1273 0019002   6.6379 138.5337 14.12804008564074
SRMSAT                  
1 37841U 11058D   22252.86596295  .00000358  00000+0  51591-4 0  9991
2 37841  19.9719 104.6679 0011896 191.2964 277.2253 14.10769578563179
M-CUBED & EXP-1 PRIME   
1 37855U 11061F   22253.02092124  .00014988  00000+0  63504-3 0  9991
2 37855 101.7192  56.9959 0149817 168.8920 191.5666 15.13680714594499
STRAND-1                
1 39090U 13009E   22253.06850452  .00000175  00000+0  76068-4 0  9991
2 39090  98.4013  88.9857 0009598  26.3953 333.7720 14.35322494499556
SOMP                    
1 39134U 13015E   22252.65080173  .00015148  00000+0  50869-3 0  9992
2 39134  64.8613 145.1545 0035215 266.4567  93.2538 15.30453684519731
BEESAT-3                
1 39135U 13015F   22253.14355478  .00011785  00000+0  46372-3 0  9998
2 39135  64.8661 181.7054 0039166 271.5411  88.1233 15.25275279519450
BEESAT-2                
1 39136U 13015G   22253.18269510  .00010737  00000+0  44361-3 0  9996
2 39136  64.8746 190.2567 0021680 294.9205  64.9671 15.24197579519308
ZACUBE-1 (TSHEPISOSAT)  
1 39417U 13066B   22253.14328963  .00001499  00000+0  18722-3 0  9995
2 39417  97.6449 220.8646 0058800 125.8936 234.7756 14.82566437475677
GOMX-1                  
1 39430U 13066Q   22253.01026226  .00000969  00000+0  17994-3 0  9994
2 39430  97.8011 155.3592 0149689 137.8388 223.4451 14.60336736468639
CUBEBUG-2 (LO-74)       
1 39440U 13066AA  22253.19878102  .00001129  00000+0  15882-3 0  9995
2 39440  97.7333 207.2346 0077356 215.6792 143.9235 14.77229557473996
FUNCUBE-1 (AO-73)       
1 39444U 13066AE  22252.89467773  .00001891  00000+0  22843-3 0  9994
2 39444  97.6323 223.0453 0057862 114.6374 246.0882 14.83692108474635
UWE-3                   
1 39446U 13066AG  22252.66850213  .00001211  00000+0  16151-3 0  9997
2 39446  97.6936 213.1383 0068436 173.3796 186.8337 14.79783673472916
SPROUT                  
1 39770U 14029E   22252.99065970  .00006787  00000+0  67905-3 0  9997
2 39770  97.9488  10.5314 0009159 160.1084 200.0467 14.91730915450267
UNISAT-6                
1 40012U 14033C   22253.11408910  .00001212  00000+0  18273-3 0  9995
2 40012  97.6635  76.5712 0055976 244.2930 115.2494 14.75068616442469
DUCHIFAT-1              
1 40021U 14033M   22253.11602391  .00002666  00000+0  25992-3 0  9994
2 40021  98.0183 204.9054 0013699 117.2505 243.0112 14.93297052447337
QB50P1                  
1 40025U 14033R   22252.29911032  .00002392  00000+0  24882-3 0  9994
2 40025  97.9625 190.3790 0013125 135.5724 224.6549 14.90787514446258
NUDT-PHONESAT           
1 40900U 15049B   22253.17097457  .00031453  00000+0  79506-3 0  9991
2 40900  97.3978 271.8070 0007792 359.8094  65.2131 15.39706538387638
ZDPS 2A                 
1 40901U 15049C   22253.02530449  .00011270  00000+0  44671-3 0  9999
2 40901  97.4598 261.4920 0013010  55.7415 304.5053 15.25484094386340
ZDPS 2B                 
1 40902U 15049D   22253.24477230  .00013011  00000+0  51098-3 0  9998
2 40902  97.4695 259.5050 0013034  52.6154   3.7640 15.25756417386355
XW-2A                   
1 40903U 15049E   22253.07718277  .00025883  00000+0  36334-3 0  9995
2 40903  97.1710 311.8791 0009809 156.9621 263.6522 15.56653716392419
KAITUO 1A               
1 40904U 15049F   22253.06465668  .00005336  00000+0  26154-3 0  9998
2 40904  97.4973 254.8120 0015514  77.4089   7.7973 15.18461030385706
2015-049G               
1 40905U 15049G   22253.02178081  .00003435  00000+0  17701-3 0  9991
2 40905  97.5180 251.9860 0016635  81.2161 354.0209 15.16936902385439
XW-2C                   
1 40906U 15049H   22253.01941170  .00005807  00000+0  27381-3 0  9998
2 40906  97.4961 255.8062 0015399  67.5549 353.8407 15.19770576385765
XW-2D                   
1 40907U 15049J   22253.00261275  .00006824  00000+0  31431-3 0  9990
2 40907  97.4951 255.8486 0014708  63.7980 352.1107 15.20525873385810
LILACSAT-2              
1 40908U 15049K   22253.23547515  .00003186  00000+0  16796-3 0  9995
2 40908  97.5201 253.0141 0016907  83.6898 333.7412 15.16184430385336
XW-2E                   
1 40909U 15049L   22253.23362924  .00010680  00000+0  43235-3 0  9990
2 40909  97.4663 260.8092 0013060  45.1028  85.5067 15.24791392386322
XW-2F                   
1 40910U 15049M   22252.98014944  .00010751  00000+0  44212-3 0  9994
2 40910  97.4739 259.7106 0014082  45.9754   8.2862 15.24248446386052
XW-2B                   
1 40911U 15049N   22253.23171453  .00006651  00000+0  30747-3 0  9995
2 40911  97.4941 256.6486 0014539  63.8058 352.5769 15.20407035385730
KAITUO 1B               
1 40912U 15049P   22253.26714326  .00012332  00000+0  45900-3 0  9991
2 40912  97.4362 264.3449 0012653  12.6282  47.1902 15.27558163386697
TIANWANG 1A (TW-1A)     
1 40928U 15051D   22253.24739878  .00060733  00000+0  57783-3 0  9998
2 40928  97.0334 275.5227 0008468  77.8857 348.7075 15.66611571391487
LAPAN-A2                
1 40931U 15052B   22252.86669612  .00000843  00000+0  28001-4 0  9996
2 40931   5.9996 286.9451 0013201 286.9851  72.8860 14.76853184375843
E-ST@R-II               
1 41459U 16025D   22253.06873506  .00009084  00000+0  38163-3 0  9990
2 41459  98.1932  64.6296 0140417 342.2612  17.3703 15.15087369350304
AAUSAT 4                
1 41460U 16025E   22253.02372880  .00015160  00000+0  54857-3 0  9997
2 41460  98.1824  71.6120 0119045 315.5454  43.6004 15.22000226350794
